[{"OBJECT_NAME":"SWARM C","OBJECT_ID":"2013-067C","EPOCH":"2026-03-09T21:59:52.664928","MEAN_MOTION":15.4875685,"ECCENTRICITY":0.00030726,"INCLINATION":87.3287,"RA_OF_ASC_NODE":91.6553,"ARG_OF_PERICENTER":94.2355,"MEAN_ANOMALY":265.9256,"EPHEMERIS_TYPE":0,"CLASSIFICATION_TYPE":"U","NORAD_CAT_ID":39453,"ELEMENT_SET_NO":999,"REV_AT_EPOCH":69083,"BSTAR":0.00023321398,"MEAN_MOTION_DOT":0.00012548,"MEAN_MOTION_DDOT":0},{"OBJECT_NAME":"ARIANE 40+3 R\/B","OBJECT_ID":"1995-033D","EPOCH":"2026-03-09T22:16:15.098592","MEAN_MOTION":15.47222333,"ECCENTRICITY":0.00073585,"INCLINATION":98.2878,"RA_OF_ASC_NODE":273.1988,"ARG_OF_PERICENTER":36.2046,"MEAN_ANOMALY":323.9698,"EPHEMERIS_TYPE":0,"CLASSIFICATION_TYPE":"U","NORAD_CAT_ID":23608,"ELEMENT_SET_NO":999,"REV_AT_EPOCH":66682,"BSTAR":0.0008304958,"MEAN_MOTION_DOT":0.0004236,"MEAN_MOTION_DDOT":0}]
